2025-313AG              
1 67278U 25313AG  26011.23760561  .00008298  00000+0  38548-3 0  9991
2 67278  97.4093  88.4684 0014043 192.2840 167.8055 15.20165919  2092
GALAPAGOS-UTE-SWSU      
1 67279U 25313AH  26011.23718316  .00009757  00000+0  45158-3 0  9999
2 67279  97.4104  88.4707 0014640 189.2236 170.8733 15.20236051  2082
2025-313AJ              
1 67280U 25313AJ  26011.23404122  .00007259  00000+0  33404-3 0  9994
2 67280  97.4176  88.4748 0013538 185.7379 174.3704 15.20543051  2080
2025-313AK              
1 67281U 25313AK  26011.23323040  .00007133  00000+0  32755-3 0  9993
2 67281  97.4059  88.4659 0012269 184.4373 175.6756 15.20634107  2086
2025-313AL              
1 67282U 25313AL  26011.22999375  .00007235  00000+0  32872-3 0  9996
2 67282  97.4108  88.4670 0011041 183.2560 176.8606 15.21011173  2087
2025-313AM              
1 67283U 25313AM  26011.29527925  .00012958  00000+0  58390-3 0  9993
2 67283  97.4114  88.5341 0010961 183.2245 176.8922 15.21122943  2091
2025-313AN              
1 67284U 25313AN  26011.29578049  .00004618  00000+0  21126-3 0  9998
2 67284  97.4102  88.5303 0010912 182.8241 177.2935 15.20972900  2098
2025-313AP              
1 67285U 25313AP  26011.29462854  .00011104  00000+0  50003-3 0  9999
2 67285  97.4093  88.5300 0010578 184.4994 175.6149 15.21187937  2094
2025-313AQ              
1 67286U 25313AQ  26011.22838352  .00009954  00000+0  44824-3 0  9997
2 67286  97.4114  88.4785 0010282 180.7302 179.3921 15.21221544  2080
LUCA                    
1 67287U 25313AR  26011.16222317  .00010881  00000+0  48860-3 0  9994
2 67287  97.4113  88.4145 0010184 181.5449 178.5757 15.21295132  2073
2025-313AS              
1 67288U 25313AS  26011.22847723  .00007513  00000+0  33942-3 0  9999
2 67288  97.4104  88.4755 0012016 173.8883 186.2502 15.21181227  2087
2025-313AT              
1 67289U 25313AT  26011.22733202  .00017512  00000+0  78067-3 0  9993
2 67289  97.4114  88.4806 0010097 181.8436 178.2765 15.21433464  2081
