CCSDS_OMM_VERS = 2.0
CREATION_DATE  = 
ORIGINATOR     = 

OBJECT_NAME    = 2025-313AG
OBJECT_ID      = 2025-313AG
CENTER_NAME    = EARTH
REF_FRAME      = TEME
TIME_SYSTEM    = UTC
MEAN_ELEMENT_THEORY = SGP/SGP4

EPOCH          = 2026-01-11T05:42:09.124704
MEAN_MOTION    = 15.20165919
ECCENTRICITY   = .00140432
INCLINATION    = 97.4093
RA_OF_ASC_NODE = 88.4684
ARG_OF_PERICENTER = 192.2840
MEAN_ANOMALY   = 167.8055

EPHEMERIS_TYPE = 0
CLASSIFICATION_TYPE = U
NORAD_CAT_ID   = 67278
ELEMENT_SET_NO = 999
REV_AT_EPOCH   = 209
BSTAR          = .38548352E-3
MEAN_MOTION_DOT = .8298E-4
MEAN_MOTION_DDOT = 0

CCSDS_OMM_VERS = 2.0
CREATION_DATE  = 
ORIGINATOR     = 

OBJECT_NAME    = GALAPAGOS-UTE-SWSU
OBJECT_ID      = 2025-313AH
CENTER_NAME    = EARTH
REF_FRAME      = TEME
TIME_SYSTEM    = UTC
MEAN_ELEMENT_THEORY = SGP/SGP4

EPOCH          = 2026-01-11T05:41:32.625024
MEAN_MOTION    = 15.20236051
ECCENTRICITY   = .00146408
INCLINATION    = 97.4104
RA_OF_ASC_NODE = 88.4707
ARG_OF_PERICENTER = 189.2236
MEAN_ANOMALY   = 170.8733

EPHEMERIS_TYPE = 0
CLASSIFICATION_TYPE = U
NORAD_CAT_ID   = 67279
ELEMENT_SET_NO = 999
REV_AT_EPOCH   = 208
BSTAR          = .45158338E-3
MEAN_MOTION_DOT = .9757E-4
MEAN_MOTION_DDOT = 0

CCSDS_OMM_VERS = 2.0
CREATION_DATE  = 
ORIGINATOR     = 

OBJECT_NAME    = 2025-313AJ
OBJECT_ID      = 2025-313AJ
CENTER_NAME    = EARTH
REF_FRAME      = TEME
TIME_SYSTEM    = UTC
MEAN_ELEMENT_THEORY = SGP/SGP4

EPOCH          = 2026-01-11T05:37:01.161408
MEAN_MOTION    = 15.20543051
ECCENTRICITY   = .00135387
INCLINATION    = 97.4176
RA_OF_ASC_NODE = 88.4748
ARG_OF_PERICENTER = 185.7379
MEAN_ANOMALY   = 174.3704

EPHEMERIS_TYPE = 0
CLASSIFICATION_TYPE = U
NORAD_CAT_ID   = 67280
ELEMENT_SET_NO = 999
REV_AT_EPOCH   = 208
BSTAR          = .33403555E-3
MEAN_MOTION_DOT = .7259E-4
MEAN_MOTION_DDOT = 0

CCSDS_OMM_VERS = 2.0
CREATION_DATE  = 
ORIGINATOR     = 

OBJECT_NAME    = 2025-313AK
OBJECT_ID      = 2025-313AK
CENTER_NAME    = EARTH
REF_FRAME      = TEME
TIME_SYSTEM    = UTC
MEAN_ELEMENT_THEORY = SGP/SGP4

EPOCH          = 2026-01-11T05:35:51.106560
MEAN_MOTION    = 15.20634107
ECCENTRICITY   = .0012269
INCLINATION    = 97.4059
RA_OF_ASC_NODE = 88.4659
ARG_OF_PERICENTER = 184.4373
MEAN_ANOMALY   = 175.6756

EPHEMERIS_TYPE = 0
CLASSIFICATION_TYPE = U
NORAD_CAT_ID   = 67281
ELEMENT_SET_NO = 999
REV_AT_EPOCH   = 208
BSTAR          = .32755358E-3
MEAN_MOTION_DOT = .7133E-4
MEAN_MOTION_DDOT = 0

CCSDS_OMM_VERS = 2.0
CREATION_DATE  = 
ORIGINATOR     = 

OBJECT_NAME    = 2025-313AL
OBJECT_ID      = 2025-313AL
CENTER_NAME    = EARTH
REF_FRAME      = TEME
TIME_SYSTEM    = UTC
MEAN_ELEMENT_THEORY = SGP/SGP4

EPOCH          = 2026-01-11T05:31:11.460000
MEAN_MOTION    = 15.21011173
ECCENTRICITY   = .00110417
INCLINATION    = 97.4108
RA_OF_ASC_NODE = 88.4670
ARG_OF_PERICENTER = 183.2560
MEAN_ANOMALY   = 176.8606

EPHEMERIS_TYPE = 0
CLASSIFICATION_TYPE = U
NORAD_CAT_ID   = 67282
ELEMENT_SET_NO = 999
REV_AT_EPOCH   = 208
BSTAR          = .32871757E-3
MEAN_MOTION_DOT = .7235E-4
MEAN_MOTION_DDOT = 0

CCSDS_OMM_VERS = 2.0
CREATION_DATE  = 
ORIGINATOR     = 

OBJECT_NAME    = 2025-313AM
OBJECT_ID      = 2025-313AM
CENTER_NAME    = EARTH
REF_FRAME      = TEME
TIME_SYSTEM    = UTC
MEAN_ELEMENT_THEORY = SGP/SGP4

EPOCH          = 2026-01-11T07:05:12.127200
MEAN_MOTION    = 15.21122943
ECCENTRICITY   = .00109618
INCLINATION    = 97.4114
RA_OF_ASC_NODE = 88.5341
ARG_OF_PERICENTER = 183.2245
MEAN_ANOMALY   = 176.8922

EPHEMERIS_TYPE = 0
CLASSIFICATION_TYPE = U
NORAD_CAT_ID   = 67283
ELEMENT_SET_NO = 999
REV_AT_EPOCH   = 209
BSTAR          = .58390131E-3
MEAN_MOTION_DOT = .12958E-3
MEAN_MOTION_DDOT = 0

CCSDS_OMM_VERS = 2.0
CREATION_DATE  = 
ORIGINATOR     = 

OBJECT_NAME    = 2025-313AN
OBJECT_ID      = 2025-313AN
CENTER_NAME    = EARTH
REF_FRAME      = TEME
TIME_SYSTEM    = UTC
MEAN_ELEMENT_THEORY = SGP/SGP4

EPOCH          = 2026-01-11T07:05:55.434336
MEAN_MOTION    = 15.20972900
ECCENTRICITY   = .00109127
INCLINATION    = 97.4102
RA_OF_ASC_NODE = 88.5303
ARG_OF_PERICENTER = 182.8241
MEAN_ANOMALY   = 177.2935

EPHEMERIS_TYPE = 0
CLASSIFICATION_TYPE = U
NORAD_CAT_ID   = 67284
ELEMENT_SET_NO = 999
REV_AT_EPOCH   = 209
BSTAR          = .21125662E-3
MEAN_MOTION_DOT = .4618E-4
MEAN_MOTION_DDOT = 0

CCSDS_OMM_VERS = 2.0
CREATION_DATE  = 
ORIGINATOR     = 

OBJECT_NAME    = 2025-313AP
OBJECT_ID      = 2025-313AP
CENTER_NAME    = EARTH
REF_FRAME      = TEME
TIME_SYSTEM    = UTC
MEAN_ELEMENT_THEORY = SGP/SGP4

EPOCH          = 2026-01-11T07:04:15.905856
MEAN_MOTION    = 15.21187937
ECCENTRICITY   = .00105789
INCLINATION    = 97.4093
RA_OF_ASC_NODE = 88.5300
ARG_OF_PERICENTER = 184.4994
MEAN_ANOMALY   = 175.6149

EPHEMERIS_TYPE = 0
CLASSIFICATION_TYPE = U
NORAD_CAT_ID   = 67285
ELEMENT_SET_NO = 999
REV_AT_EPOCH   = 209
BSTAR          = .50003025E-3
MEAN_MOTION_DOT = .11104E-3
MEAN_MOTION_DDOT = 0

CCSDS_OMM_VERS = 2.0
CREATION_DATE  = 
ORIGINATOR     = 

OBJECT_NAME    = 2025-313AQ
OBJECT_ID      = 2025-313AQ
CENTER_NAME    = EARTH
REF_FRAME      = TEME
TIME_SYSTEM    = UTC
MEAN_ELEMENT_THEORY = SGP/SGP4

EPOCH          = 2026-01-11T05:28:52.336128
MEAN_MOTION    = 15.21221544
ECCENTRICITY   = .0010282
INCLINATION    = 97.4114
RA_OF_ASC_NODE = 88.4785
ARG_OF_PERICENTER = 180.7302
MEAN_ANOMALY   = 179.3921

EPHEMERIS_TYPE = 0
CLASSIFICATION_TYPE = U
NORAD_CAT_ID   = 67286
ELEMENT_SET_NO = 999
REV_AT_EPOCH   = 208
BSTAR          = .44824243E-3
MEAN_MOTION_DOT = .9954E-4
MEAN_MOTION_DDOT = 0

CCSDS_OMM_VERS = 2.0
CREATION_DATE  = 
ORIGINATOR     = 

OBJECT_NAME    = LUCA
OBJECT_ID      = 2025-313AR
CENTER_NAME    = EARTH
REF_FRAME      = TEME
TIME_SYSTEM    = UTC
MEAN_ELEMENT_THEORY = SGP/SGP4

EPOCH          = 2026-01-11T03:53:36.081888
MEAN_MOTION    = 15.21295132
ECCENTRICITY   = .00101845
INCLINATION    = 97.4113
RA_OF_ASC_NODE = 88.4145
ARG_OF_PERICENTER = 181.5449
MEAN_ANOMALY   = 178.5757

EPHEMERIS_TYPE = 0
CLASSIFICATION_TYPE = U
NORAD_CAT_ID   = 67287
ELEMENT_SET_NO = 999
REV_AT_EPOCH   = 207
BSTAR          = .48860467E-3
MEAN_MOTION_DOT = .10881E-3
MEAN_MOTION_DDOT = 0

CCSDS_OMM_VERS = 2.0
CREATION_DATE  = 
ORIGINATOR     = 

OBJECT_NAME    = 2025-313AS
OBJECT_ID      = 2025-313AS
CENTER_NAME    = EARTH
REF_FRAME      = TEME
TIME_SYSTEM    = UTC
MEAN_ELEMENT_THEORY = SGP/SGP4

EPOCH          = 2026-01-11T05:29:00.432672
MEAN_MOTION    = 15.21181227
ECCENTRICITY   = .00120165
INCLINATION    = 97.4104
RA_OF_ASC_NODE = 88.4755
ARG_OF_PERICENTER = 173.8883
MEAN_ANOMALY   = 186.2502

EPHEMERIS_TYPE = 0
CLASSIFICATION_TYPE = U
NORAD_CAT_ID   = 67288
ELEMENT_SET_NO = 999
REV_AT_EPOCH   = 208
BSTAR          = .33941757E-3
MEAN_MOTION_DOT = .7513E-4
MEAN_MOTION_DDOT = 0

CCSDS_OMM_VERS = 2.0
CREATION_DATE  = 
ORIGINATOR     = 

OBJECT_NAME    = 2025-313AT
OBJECT_ID      = 2025-313AT
CENTER_NAME    = EARTH
REF_FRAME      = TEME
TIME_SYSTEM    = UTC
MEAN_ELEMENT_THEORY = SGP/SGP4

EPOCH          = 2026-01-11T05:27:21.486528
MEAN_MOTION    = 15.21433464
ECCENTRICITY   = .00100971
INCLINATION    = 97.4114
RA_OF_ASC_NODE = 88.4806
ARG_OF_PERICENTER = 181.8436
MEAN_ANOMALY   = 178.2765

EPHEMERIS_TYPE = 0
CLASSIFICATION_TYPE = U
NORAD_CAT_ID   = 67289
ELEMENT_SET_NO = 999
REV_AT_EPOCH   = 208
BSTAR          = .78067241E-3
MEAN_MOTION_DOT = .17512E-3
MEAN_MOTION_DDOT = 0

